start=new Date('2022-10-14T00:00:00.000Z').valueOf();
sats=[{"COUNTRY_CODE":"US","ARG_OF_PERICENTER":"52.9620","DECAY_DATE":null,"CLASSIFICATION_TYPE":"U","MEAN_MOTION_DDOT":"0.0000000000000","SITE":"AFETR","SEMIMAJOR_AXIS":"6925.336","PERIAPSIS":"546.051","FILE":"3609209","REV_AT_EPOCH":"9014","OBJECT_ID":"2021-017AW","EPHEMERIS_TYPE":"0","APOAPSIS":"548.351","CENTER_NAME":"EARTH","LAUNCH_DATE":"2021-03-04","RA_OF_ASC_NODE":"47.0789","MEAN_ELEMENT_THEORY":"SGP4","MEAN_MOTION_DOT":"0.00007666","NORAD_CAT_ID":"47766","TIME_SYSTEM":"UTC","ELEMENT_SET_NO":"999","ECCENTRICITY":"0.00016610","GP_ID":"214993434","REF_FRAME":"TEME","MEAN_MOTION":"15.06404120","RCS_SIZE":"MEDIUM","BSTAR":"0.00053295000000","OBJECT_NAME":"STARLINK-2184","EPOCH":"2022-10-13T14:17:03.015456","INCLINATION":"53.0553","TLE_LINE2":"2 47766  53.0553  47.0789 0001661  52.9620 307.1521 15.06404120 90142","MEAN_ANOMALY":"307.1521","PERIOD":"95.592","TLE_LINE1":"1 47766U 21017AW  22286.59517379  .00007666  00000-0  53295-3 0  9999","OBJECT_TYPE":"PAYLOAD"},{"APOAPSIS":"548.281","RA_OF_ASC_NODE":"31.6759","CENTER_NAME":"EARTH","LAUNCH_DATE":"2021-03-04","MEAN_MOTION_DOT":"0.00010688","TIME_SYSTEM":"UTC","NORAD_CAT_ID":"47767","MEAN_ELEMENT_THEORY":"SGP4","ARG_OF_PERICENTER":"59.2722","COUNTRY_CODE":"US","MEAN_MOTION_DDOT":"0.0000000000000","CLASSIFICATION_TYPE":"U","DECAY_DATE":null,"SEMIMAJOR_AXIS":"6925.326","PERIAPSIS":"546.100","SITE":"AFETR","OBJECT_ID":"2021-017AX","EPHEMERIS_TYPE":"0","REV_AT_EPOCH":"9043","FILE":"3609636","PERIOD":"95.592","MEAN_ANOMALY":"300.8422","TLE_LINE2":"2 47767  53.0555  31.6759 0001575  59.2722 300.8422 15.06407445 90433","INCLINATION":"53.0555","TLE_LINE1":"1 47767U 21017AX  22286.68781412  .00010688  00000-0  73521-3 0  9993","OBJECT_TYPE":"PAYLOAD","ECCENTRICITY":"0.00015750","ELEMENT_SET_NO":"999","REF_FRAME":"TEME","GP_ID":"215026987","MEAN_MOTION":"15.06407445","RCS_SIZE":"LARGE","EPOCH":"2022-10-13T16:30:27.139968","BSTAR":"0.00073521000000","OBJECT_NAME":"STARLINK-2185"},{"REF_FRAME":"TEME","GP_ID":"214992433","ELEMENT_SET_NO":"999","ECCENTRICITY":"0.00016280","EPOCH":"2022-10-13T11:07:25.016736","BSTAR":"0.00020930000000","OBJECT_NAME":"STARLINK-2189","MEAN_MOTION":"15.06389477","RCS_SIZE":"LARGE","PERIOD":"95.593","MEAN_ANOMALY":"295.5913","TLE_LINE2":"2 47768  53.0558  48.0798 0001628  64.5244 295.5913 15.06389477 90157","INCLINATION":"53.0558","TLE_LINE1":"1 47768U 21017AY  22286.46348399  .00002836  00000-0  20930-3 0  9995","OBJECT_TYPE":"PAYLOAD","MEAN_MOTION_DDOT":"0.0000000000000","DECAY_DATE":null,"CLASSIFICATION_TYPE":"U","ARG_OF_PERICENTER":"64.5244","COUNTRY_CODE":"US","OBJECT_ID":"2021-017AY","EPHEMERIS_TYPE":"0","FILE":"3609209","REV_AT_EPOCH":"9015","SEMIMAJOR_AXIS":"6925.381","PERIAPSIS":"546.118","SITE":"AFETR","APOAPSIS":"548.373","MEAN_MOTION_DOT":"0.00002836","NORAD_CAT_ID":"47768","TIME_SYSTEM":"UTC","MEAN_ELEMENT_THEORY":"SGP4","RA_OF_ASC_NODE":"48.0798","LAUNCH_DATE":"2021-03-04","CENTER_NAME":"EARTH"},{"OBJECT_ID":"2021-017AZ","EPHEMERIS_TYPE":"0","FILE":"3609636","REV_AT_EPOCH":"9069","SEMIMAJOR_AXIS":"6925.397","PERIAPSIS":"546.074","SITE":"AFETR","MEAN_MOTION_DDOT":"0.0000000000000","CLASSIFICATION_TYPE":"U","DECAY_DATE":null,"ARG_OF_PERICENTER":"47.3311","COUNTRY_CODE":"US","MEAN_MOTION_DOT":"0.00002097","NORAD_CAT_ID":"47769","TIME_SYSTEM":"UTC","MEAN_ELEMENT_THEORY":"SGP4","RA_OF_ASC_NODE":"12.0568","CENTER_NAME":"EARTH","LAUNCH_DATE":"2021-03-04","APOAPSIS":"548.450","EPOCH":"2022-10-13T14:31:02.011296","BSTAR":"0.00015971000000","OBJECT_NAME":"STARLINK-2192","MEAN_MOTION":"15.06384171","RCS_SIZE":"LARGE","REF_FRAME":"TEME","GP_ID":"215026000","ECCENTRICITY":"0.00017150","ELEMENT_SET_NO":"999","TLE_LINE1":"1 47769U 21017AZ  22286.60488439  .00002097  00000-0  15971-3 0  9990","OBJECT_TYPE":"PAYLOAD","PERIOD":"95.593","MEAN_ANOMALY":"312.7822","TLE_LINE2":"2 47769  53.0552  12.0568 0001715  47.3311 312.7822 15.06384171 90695","INCLINATION":"53.0552"},{"COUNTRY_CODE":"US","ARG_OF_PERICENTER":"56.2910","CLASSIFICATION_TYPE":"U","DECAY_DATE":null,"MEAN_MOTION_DDOT":"0.0000000000000","SITE":"AFETR","SEMIMAJOR_AXIS":"6925.358","PERIAPSIS":"546.079","FILE":"3609636","REV_AT_EPOCH":"9047","OBJECT_ID":"2021-017BA","EPHEMERIS_TYPE":"0","APOAPSIS":"548.367","CENTER_NAME":"EARTH","LAUNCH_DATE":"2021-03-04","RA_OF_ASC_NODE":"26.6964","MEAN_ELEMENT_THEORY":"SGP4","NORAD_CAT_ID":"47770","TIME_SYSTEM":"UTC","MEAN_MOTION_DOT":"0.00003018","ELEMENT_SET_NO":"999","ECCENTRICITY":"0.00016520","GP_ID":"215026251","REF_FRAME":"TEME","RCS_SIZE":"LARGE","MEAN_MOTION":"15.06396838","OBJECT_NAME":"STARLINK-2193","BSTAR":"0.00022144000000","EPOCH":"2022-10-13T16:17:50.388288","TLE_LINE2":"2 47770  53.0552  26.6964 0001652  56.2910 303.8236 15.06396838 90471","INCLINATION":"53.0552","MEAN_ANOMALY":"303.8236","PERIOD":"95.592","OBJECT_TYPE":"PAYLOAD","TLE_LINE1":"1 47770U 21017BA  22286.67905542  .00003018  00000-0  22144-3 0  9992"},{"MEAN_MOTION_DOT":"0.00001781","TIME_SYSTEM":"UTC","NORAD_CAT_ID":"47771","MEAN_ELEMENT_THEORY":"SGP4","RA_OF_ASC_NODE":"26.6711","CENTER_NAME":"EARTH","LAUNCH_DATE":"2021-03-04","APOAPSIS":"548.558","EPHEMERIS_TYPE":"0","OBJECT_ID":"2021-017BB","REV_AT_EPOCH":"9048","FILE":"3609636","SEMIMAJOR_AXIS":"6925.389","PERIAPSIS":"545.950","SITE":"AFETR","MEAN_MOTION_DDOT":"0.0000000000000","CLASSIFICATION_TYPE":"U","DECAY_DATE":null,"ARG_OF_PERICENTER":"51.1552","COUNTRY_CODE":"US","OBJECT_TYPE":"PAYLOAD","TLE_LINE1":"1 47771U 21017BB  22286.69011481  .00001781  00000-0  13850-3 0  9994","PERIOD":"95.593","MEAN_ANOMALY":"308.9605","INCLINATION":"53.0568","TLE_LINE2":"2 47771  53.0568  26.6711 0001883  51.1552 308.9605 15.06386815 90482","EPOCH":"2022-10-13T16:33:45.919584","BSTAR":"0.00013850000000","OBJECT_NAME":"STARLINK-2194","MEAN_MOTION":"15.06386815","RCS_SIZE":"LARGE","REF_FRAME":"TEME","GP_ID":"215026487","ELEMENT_SET_NO":"999","ECCENTRICITY":"0.00018830"},{"DECAY_DATE":null,"CLASSIFICATION_TYPE":"U","MEAN_MOTION_DDOT":"0.0000000000000","COUNTRY_CODE":"US","ARG_OF_PERICENTER":"74.6700","REV_AT_EPOCH":"9026","FILE":"3609636","EPHEMERIS_TYPE":"0","OBJECT_ID":"2021-017BC","SITE":"AFETR","PERIAPSIS":"546.362","SEMIMAJOR_AXIS":"6925.427","APOAPSIS":"548.221","MEAN_ELEMENT_THEORY":"SGP4","NORAD_CAT_ID":"47772","TIME_SYSTEM":"UTC","MEAN_MOTION_DOT":"0.00001569","CENTER_NAME":"EARTH","LAUNCH_DATE":"2021-03-04","RA_OF_ASC_NODE":"41.1199","GP_ID":"215025250","REF_FRAME":"TEME","ELEMENT_SET_NO":"999","ECCENTRICITY":"0.00013420","OBJECT_NAME":"STARLINK-2195","BSTAR":"0.00012428000000","EPOCH":"2022-10-13T19:29:36.312576","RCS_SIZE":"LARGE","MEAN_MOTION":"15.06374478","INCLINATION":"53.0563","TLE_LINE2":"2 47772  53.0563  41.1199 0001342  74.6700 285.4437 15.06374478 90265","MEAN_ANOMALY":"285.4437","PERIOD":"95.594","TLE_LINE1":"1 47772U 21017BC  22286.81222584  .00001569  00000-0  12428-3 0  9991","OBJECT_TYPE":"PAYLOAD"},{"APOAPSIS":"548.316","RA_OF_ASC_NODE":"42.0264","CENTER_NAME":"EARTH","LAUNCH_DATE":"2021-03-04","MEAN_MOTION_DOT":"0.00002680","NORAD_CAT_ID":"47773","TIME_SYSTEM":"UTC","MEAN_ELEMENT_THEORY":"SGP4","ARG_OF_PERICENTER":"59.2523","COUNTRY_CODE":"US","MEAN_MOTION_DDOT":"0.0000000000000","CLASSIFICATION_TYPE":"U","DECAY_DATE":null,"PERIAPSIS":"546.158","SEMIMAJOR_AXIS":"6925.372","SITE":"AFETR","OBJECT_ID":"2021-017BD","EPHEMERIS_TYPE":"0","FILE":"3609636","REV_AT_EPOCH":"9022","PERIOD":"95.593","MEAN_ANOMALY":"300.8619","TLE_LINE2":"2 47773  53.0556  42.0264 0001558  59.2523 300.8619 15.06392298 90222","INCLINATION":"53.0556","TLE_LINE1":"1 47773U 21017BD  22286.60948520  .00002680  00000-0  19881-3 0  9999","OBJECT_TYPE":"PAYLOAD","ECCENTRICITY":"0.00015580","ELEMENT_SET_NO":"999","REF_FRAME":"TEME","GP_ID":"215025500","MEAN_MOTION":"15.06392298","RCS_SIZE":"LARGE","EPOCH":"2022-10-13T14:37:39.521280","BSTAR":"0.00019881000000","OBJECT_NAME":"STARLINK-2196"},{"BSTAR":"0.00026981000000","OBJECT_NAME":"STARLINK-2197","EPOCH":"2022-10-13T11:21:16.267680","MEAN_MOTION":"15.06394572","RCS_SIZE":"LARGE","GP_ID":"214993435","REF_FRAME":"TEME","ELEMENT_SET_NO":"999","ECCENTRICITY":"0.00015420","TLE_LINE1":"1 47774U 21017BE  22286.47310495  .00003739  00000-0  26981-3 0  9994","OBJECT_TYPE":"PAYLOAD","INCLINATION":"53.0543","TLE_LINE2":"2 47774  53.0543  42.6410 0001542  60.9021 299.2122 15.06394572 90219","MEAN_ANOMALY":"299.2122","PERIOD":"95.592","REV_AT_EPOCH":"9021","FILE":"3609209","OBJECT_ID":"2021-017BE","EPHEMERIS_TYPE":"0","SITE":"AFETR","SEMIMAJOR_AXIS":"6925.365","PERIAPSIS":"546.162","DECAY_DATE":null,"CLASSIFICATION_TYPE":"U","MEAN_MOTION_DDOT":"0.0000000000000","COUNTRY_CODE":"US","ARG_OF_PERICENTER":"60.9021","MEAN_ELEMENT_THEORY":"SGP4","MEAN_MOTION_DOT":"0.00003739","NORAD_CAT_ID":"47774","TIME_SYSTEM":"UTC","LAUNCH_DATE":"2021-03-04","CENTER_NAME":"EARTH","RA_OF_ASC_NODE":"42.6410","APOAPSIS":"548.298"},{"APOAPSIS":"548.307","MEAN_ELEMENT_THEORY":"SGP4","TIME_SYSTEM":"UTC","NORAD_CAT_ID":"47775","MEAN_MOTION_DOT":"0.00002941","CENTER_NAME":"EARTH","LAUNCH_DATE":"2021-03-04","RA_OF_ASC_NODE":"41.0947","DECAY_DATE":null,"CLASSIFICATION_TYPE":"U","MEAN_MOTION_DDOT":"0.0000000000000","COUNTRY_CODE":"US","ARG_OF_PERICENTER":"55.5937","REV_AT_EPOCH":"9031","FILE":"3609636","EPHEMERIS_TYPE":"0","OBJECT_ID":"2021-017BF","SITE":"AFETR","PERIAPSIS":"546.136","SEMIMAJOR_AXIS":"6925.356","TLE_LINE2":"2 47775  53.0558  41.0947 0001568  55.5937 304.5200 15.06397411 90311","INCLINATION":"53.0558","MEAN_ANOMALY":"304.5200","PERIOD":"95.592","OBJECT_TYPE":"PAYLOAD","TLE_LINE1":"1 47775U 21017BF  22286.81589562  .00002941  00000-0  21629-3 0  9994","GP_ID":"215026988","REF_FRAME":"TEME","ECCENTRICITY":"0.00015680","ELEMENT_SET_NO":"999","OBJECT_NAME":"STARLINK-2198","BSTAR":"0.00021629000000","EPOCH":"2022-10-13T19:34:53.381568","RCS_SIZE":"LARGE","MEAN_MOTION":"15.06397411"}];
